MALLIGYONG-1            
1 58400U 23179A   24103.50859486  .00006440  00000+0  28612-3 0  9999
2 58400  97.4119 351.3419 0011067 126.9680 233.2571 15.21821946 21738
